{"type": "FeatureCollection", "features": [ {"type": "Feature", "properties": {"norad_id": 31768, "name": "FENGYUN 1C DEB", "group": "fengyun-1c-debris", "lat": -47.47991104060112, "lon": 74.61311795593356, "alt_km": 629.9775582765069, "timestamp": "2025-12-17T04:57:44.649475+00:00", "meta": {"OBJECT_NAME": "FENGYUN 1C DEB", "OBJECT_ID": "1999-025CFT", "EPOCH": "2025-12-16T23:28:55.861248", "MEAN_MOTION": 14.76290187, "ECCENTRICITY": 0.00263455, "INCLINATION": 99.043, "RA_OF_ASC_NODE": 64.3559, "ARG_OF_PERICENTER": 327.6676, "MEAN_ANOMALY": 211.3758, "EPHEMERIS_TYPE": 0, "CLASSIFICATION_TYPE": "U", "NORAD_CAT_ID": 31768, "ELEMENT_SET_NO": 999, "REV_AT_EPOCH": 96935, "BSTAR": 0.001982203, "MEAN_MOTION_DOT": 0.0001378, "MEAN_MOTION_DDOT": 0}, "tle": {"line1": "1 31768U 99025CFT 25350.97842432  .00013780  00000+0  19822-2 0  9996", "line2": "2 31768  99.0430  64.3559 0026345 327.6676 211.3758 14.76290187969355"}}, "geometry": {"type": "Point", "coordinates": [74.61311795593356, -47.47991104060112]}}, {"type": "Feature", "properties": {"norad_id": 31772, "name": "FENGYUN 1C DEB", "group": "fengyun-1c-debris", "lat": 74.51207982782171, "lon": 120.955318725897, "alt_km": 747.733673062673, "timestamp": "2025-12-17T04:57:44.649484+00:00", "meta": {"OBJECT_NAME": "FENGYUN 1C DEB", "OBJECT_ID": "1999-025CFX", "EPOCH": "2025-12-11T05:35:48.586272", "MEAN_MOTION": 14.11688843, "ECCENTRICITY": 0.01364755, "INCLINATION": 98.4728, "RA_OF_ASC_NODE": 262.7683, "ARG_OF_PERICENTER": 117.9811, "MEAN_ANOMALY": 243.525, "EPHEMERIS_TYPE": 0, "CLASSIFICATION_TYPE": "U", "NORAD_CAT_ID": 31772, "ELEMENT_SET_NO": 999, "REV_AT_EPOCH": 70862, "BSTAR": 0.0014944149, "MEAN_MOTION_DOT": 2.93e-05, "MEAN_MOTION_DDOT": 0}, "tle": {"line1": "1 31772U 99025CFX 25345.23320123  .00002930  00000+0  14944-2 0  9997", "line2": "2 31772  98.4728 262.7683 0136475 117.9811 243.5250 14.11688843708626"}}, "geometry": {"type": "Point", "coordinates": [120.955318725897, 74.51207982782171]}}, {"type": "Feature", "properties": {"norad_id": 31773, "name": "FENGYUN 1C DEB", "group": "fengyun-1c-debris", "lat": 77.06827962402485, "lon": -60.7573845809477, "alt_km": 641.2439601194437, "timestamp": "2025-12-17T04:57:44.649493+00:00", "meta": {"OBJECT_NAME": "FENGYUN 1C DEB", "OBJECT_ID": "1999-025CFY", "EPOCH": "2025-12-16T05:46:16.244256", "MEAN_MOTION": 14.72930544, "ECCENTRICITY": 0.00393572, "INCLINATION": 98.949, "RA_OF_ASC_NODE": 341.5146, "ARG_OF_PERICENTER": 167.345, "MEAN_ANOMALY": 192.8752, "EPHEMERIS_TYPE": 0, "CLASSIFICATION_TYPE": "U", "NORAD_CAT_ID": 31773, "ELEMENT_SET_NO": 999, "REV_AT_EPOCH": 65226, "BSTAR": 0.0012966409, "MEAN_MOTION_DOT": 8.364e-05, "MEAN_MOTION_DDOT": 0}, "tle": {"line1": "1 31773U 99025CFY 25350.24046579  .00008364  00000+0  12966-2 0  9994", "line2": "2 31773  98.9490 341.5146 0039357 167.3450 192.8752 14.72930544652263"}}, "geometry": {"type": "Point", "coordinates": [-60.7573845809477, 77.06827962402485]}}, {"type": "Feature", "properties": {"norad_id": 31776, "name": "FENGYUN 1C DEB", "group": "fengyun-1c-debris", "lat": 3.648822985334214, "lon": 50.46757318849295, "alt_km": 803.269952684901, "timestamp": "2025-12-17T04:57:44.649502+00:00", "meta": {"OBJECT_NAME": "FENGYUN 1C DEB", "OBJECT_ID": "1999-025CGB", "EPOCH": "2025-12-10T10:30:15.554592", "MEAN_MOTION": 14.18530208, "ECCENTRICITY": 0.00545226, "INCLINATION": 99.0756, "RA_OF_ASC_NODE": 44.129, "ARG_OF_PERICENTER": 341.0208, "MEAN_ANOMALY": 33.1923, "EPHEMERIS_TYPE": 0, "CLASSIFICATION_TYPE": "U", "NORAD_CAT_ID": 31776, "ELEMENT_SET_NO": 999, "REV_AT_EPOCH": 94848, "BSTAR": 0.0019236943, "MEAN_MOTION_DOT": 3.993e-05, "MEAN_MOTION_DDOT": 0}, "tle": {"line1": "1 31776U 99025CGB 25344.43768003  .00003993  00000+0  19237-2 0  9995", "line2": "2 31776  99.0756  44.1290 0054522 341.0208  33.1923 14.18530208948484"}}, "geometry": {"type": "Point", "coordinates": [50.46757318849295, 3.648822985334214]}}, {"type": "Feature", "properties": {"norad_id": 31779, "name": "FENGYUN 1C DEB", "group": "fengyun-1c-debris", "lat": -42.74584571053005, "lon": -79.7179359012166, "alt_km": 886.2557272932427, "timestamp": "2025-12-17T04:57:44.649511+00:00", "meta": {"OBJECT_NAME": "FENGYUN 1C DEB", "OBJECT_ID": "1999-025CGE", "EPOCH": "2025-12-17T00:10:28.436448", "MEAN_MOTION": 14.41606688, "ECCENTRICITY": 0.02134507, "INCLINATION": 99.2986, "RA_OF_ASC_NODE": 271.3552, "ARG_OF_PERICENTER": 170.3719, "MEAN_ANOMALY": 190.166, "EPHEMERIS_TYPE": 0, "CLASSIFICATION_TYPE": "U", "NORAD_CAT_ID": 31779, "ELEMENT_SET_NO": 999, "REV_AT_EPOCH": 97071, "BSTAR": 0.00021149136, "MEAN_MOTION_DOT": 8.42e-06, "MEAN_MOTION_DDOT": 0}, "tle": {"line1": "1 31779U 99025CGE 25351.00727357  .00000842  00000+0  21149-3 0  9992", "line2": "2 31779  99.2986 271.3552 0213450 170.3719 190.1660 14.41606688970711"}}, "geometry": {"type": "Point", "coordinates": [-79.7179359012166, -42.74584571053005]}}, {"type": "Feature", "properties": {"norad_id": 31780, "name": "FENGYUN 1C DEB", "group": "fengyun-1c-debris", "lat": 3.723742681288013, "lon": 143.8384488689705, "alt_km": 578.2255435976595, "timestamp": "2025-12-17T04:57:44.649520+00:00", "meta": {"OBJECT_NAME": "FENGYUN 1C DEB", "OBJECT_ID": "1999-025CGF", "EPOCH": "2025-12-16T09:20:12.539328", "MEAN_MOTION": 14.69554523, "ECCENTRICITY": 0.01506587, "INCLINATION": 99.2856, "RA_OF_ASC_NODE": 143.5193, "ARG_OF_PERICENTER": 42.0733, "MEAN_ANOMALY": 319.1922, "EPHEMERIS_TYPE": 0, "CLASSIFICATION_TYPE": "U", "NORAD_CAT_ID": 31780, "ELEMENT_SET_NO": 999, "REV_AT_EPOCH": 98551, "BSTAR": 0.0001928827, "MEAN_MOTION_DOT": 1.289e-05, "MEAN_MOTION_DDOT": 0}, "tle": {"line1": "1 31780U 99025CGF 25350.38903402  .00001289  00000+0  19288-3 0  9998", "line2": "2 31780  99.2856 143.5193 0150658  42.0733 319.1922 14.69554523985519"}}, "geometry": {"type": "Point", "coordinates": [143.8384488689705, 3.723742681288013]}}, {"type": "Feature", "properties": {"norad_id": 31781, "name": "FENGYUN 1C DEB", "group": "fengyun-1c-debris", "lat": -51.89444224252795, "lon": 174.70174205675994, "alt_km": 751.7355530545719, "timestamp": "2025-12-17T04:57:44.649529+00:00", "meta": {"OBJECT_NAME": "FENGYUN 1C DEB", "OBJECT_ID": "1999-025CGG", "EPOCH": "2025-12-14T17:43:46.950240", "MEAN_MOTION": 14.13007035, "ECCENTRICITY": 0.02034071, "INCLINATION": 99.4963, "RA_OF_ASC_NODE": 159.7604, "ARG_OF_PERICENTER": 268.2945, "MEAN_ANOMALY": 89.4919, "EPHEMERIS_TYPE": 0, "CLASSIFICATION_TYPE": "U", "NORAD_CAT_ID": 31781, "ELEMENT_SET_NO": 999, "REV_AT_EPOCH": 68376, "BSTAR": 0.0029865129, "MEAN_MOTION_DOT": 6.735e-05, "MEAN_MOTION_DDOT": 0}, "tle": {"line1": "1 31781U 99025CGG 25348.73873785  .00006735  00000+0  29865-2 0  9997", "line2": "2 31781  99.4963 159.7604 0203407 268.2945  89.4919 14.13007035683760"}}, "geometry": {"type": "Point", "coordinates": [174.70174205675994, -51.89444224252795]}}, {"type": "Feature", "properties": {"norad_id": 31782, "name": "FENGYUN 1C DEB", "group": "fengyun-1c-debris", "lat": 59.019421507882086, "lon": 137.4090524076328, "alt_km": 751.4387404820172, "timestamp": "2025-12-17T04:57:44.649540+00:00", "meta": {"OBJECT_NAME": "FENGYUN 1C DEB", "OBJECT_ID": "1999-025CGH", "EPOCH": "2025-12-16T17:04:41.556576", "MEAN_MOTION": 14.36242924, "ECCENTRICITY": 0.00793097, "INCLINATION": 98.9041, "RA_OF_ASC_NODE": 152.0335, "ARG_OF_PERICENTER": 345.3086, "MEAN_ANOMALY": 35.236, "EPHEMERIS_TYPE": 0, "CLASSIFICATION_TYPE": "U", "NORAD_CAT_ID": 31782, "ELEMENT_SET_NO": 999, "REV_AT_EPOCH": 96748, "BSTAR": 0.00033140997, "MEAN_MOTION_DOT": 9.55e-06, "MEAN_MOTION_DDOT": 0}, "tle": {"line1": "1 31782U 99025CGH 25350.71159209  .00000955  00000+0  33141-3 0  9998", "line2": "2 31782  98.9041 152.0335 0079309 345.3086  35.2360 14.36242924967480"}}, "geometry": {"type": "Point", "coordinates": [137.4090524076328, 59.019421507882086]}}, {"type": "Feature", "properties": {"norad_id": 31783, "name": "FENGYUN 1C DEB", "group": "fengyun-1c-debris", "lat": -56.46361981874997, "lon": 166.45734657432695, "alt_km": 941.2165857085101, "timestamp": "2025-12-17T04:57:44.649550+00:00", "meta": {"OBJECT_NAME": "FENGYUN 1C DEB", "OBJECT_ID": "1999-025CGJ", "EPOCH": "2025-12-14T11:47:55.201632", "MEAN_MOTION": 14.08832325, "ECCENTRICITY": 0.01042608, "INCLINATION": 98.6047, "RA_OF_ASC_NODE": 357.0708, "ARG_OF_PERICENTER": 45.0415, "MEAN_ANOMALY": 109.7159, "EPHEMERIS_TYPE": 0, "CLASSIFICATION_TYPE": "U", "NORAD_CAT_ID": 31783, "ELEMENT_SET_NO": 999, "REV_AT_EPOCH": 89245, "BSTAR": 0.00075207432, "MEAN_MOTION_DOT": 1.324e-05, "MEAN_MOTION_DDOT": 0}, "tle": {"line1": "1 31783U 99025CGJ 25348.49161113  .00001324  00000+0  75207-3 0  9998", "line2": "2 31783  98.6047 357.0708 0104260  45.0415 109.7159 14.08832325892456"}}, "geometry": {"type": "Point", "coordinates": [166.45734657432695, -56.46361981874997]}}, {"type": "Feature", "properties": {"norad_id": 31788, "name": "FENGYUN 1C DEB", "group": "fengyun-1c-debris", "lat": -48.58800628745214, "lon": 149.94219338153863, "alt_km": 1294.3257421055105, "timestamp": "2025-12-17T04:57:44.649560+00:00", "meta": {"OBJECT_NAME": "FENGYUN 1C DEB", "OBJECT_ID": "1999-025CGP", "EPOCH": "2025-12-16T15:14:27.156192", "MEAN_MOTION": 13.4511266, "ECCENTRICITY": 0.04620444, "INCLINATION": 102.5551, "RA_OF_ASC_NODE": 134.5928, "ARG_OF_PERICENTER": 78.1578, "MEAN_ANOMALY": 348.7326, "EPHEMERIS_TYPE": 0, "CLASSIFICATION_TYPE": "U", "NORAD_CAT_ID": 31788, "ELEMENT_SET_NO": 999, "REV_AT_EPOCH": 90657, "BSTAR": 0.001768902, "MEAN_MOTION_DOT": 1.927e-05, "MEAN_MOTION_DDOT": 0}, "tle": {"line1": "1 31788U 99025CGP 25350.63503653  .00001927  00000+0  17689-2 0  9999", "line2": "2 31788 102.5551 134.5928 0462044  78.1578 348.7326 13.45112660906575"}}, "geometry": {"type": "Point", "coordinates": [149.94219338153863, -48.58800628745214]}}]}